SL-8 R/B                
1 19257U 88053B   26115.86395552  .00000189  00000+0  69849-4 0  9993
2 19257  74.0497  25.5077 0020604 197.2829 226.8900 14.38941943983387
COSMOS 1975             
1 19573U 88093A   26115.86368075  .00007284  00000+0  25986-3 0  9994
2 19573  82.5186  70.2958 0011760  15.0205 345.1382 15.28646575 26616
SL-14 R/B               
1 19574U 88093B   26115.74044402  .00000310  00000+0  32817-4 0  9992
2 19574  82.5331 357.8873 0019272 240.5197 180.6467 14.85703075  8000
SL-16 R/B               
1 19650U 88102B   26115.94764584 -.00000073  00000+0 -12819-4 0  9998
2 19650  71.0003  52.0573 0016259 294.6858  65.2572 14.16157299933581
INTERCOSMOS 24          
1 20261U 89080A   26115.82870199  .00000350  00000+0  98190-4 0  9993
2 20261  82.6040  73.7038 1187522 183.3519 175.9073 12.59601468672736
SL-14 R/B               
1 20262U 89080C   26115.76366053  .00000301  00000+0  81081-4 0  9993
2 20262  82.5908 142.9770 1230991  77.2106 296.3420 12.50528987666038
DELTA 1 R/B             
1 20323U 89089B   26115.79942885  .00000210  00000+0  60878-4 0  9996
2 20323  97.0667 315.7315 0068329 334.8903  24.8978 14.50696893902561
ARIANE 40 R/B           
1 20443U 90005H   26115.92797987  .00000223  00000+0  84267-4 0  9997
2 20443  98.2997 175.1598 0011223  66.7308 293.5061 14.39899087899600
DELTA 2 R/B(1)          
1 20453U 90008B   26115.56726990  .00057878  00000+0  55560-3 0  9998
2 20453  35.6012 225.7550 0074257 338.5337  21.2294 15.61918580933454
COSMOS 2058             
1 20465U 90010A   26115.78237774  .00002637  00000+0  15309-3 0  9995
2 20465  82.4695   1.0295 0009760 160.7045 199.4557 15.11697270949354
SL-14 R/B               
1 20466U 90010B   26115.76399798  .00000381  00000+0  43170-4 0  9991
2 20466  82.5042 223.1688 0020795 141.5379 218.7323 14.83611833935465
SL-14 R/B               
1 20511U 90018B   26115.69190349  .00000267  00000+0  30547-4 0  9990
2 20511  82.5231 179.1725 0014859 299.7020  60.2715 14.82184367929544
HST                     
1 20580U 90037B   26115.58527907  .00006480  00000+0  20815-3 0  9998
2 20580  28.4745  79.9164 0001645 280.6914  79.3497 15.30144545780500
SL-16 R/B               
1 20625U 90046B   26115.63648262  .00000071  00000+0  61062-4 0  9992
2 20625  70.9991 199.3140 0016080 237.3411 122.6161 14.15015186855037
COSMOS 2084             
1 20663U 90055A   26115.53993137  .00001600  00000+0  12329-3 0  9997
2 20663  62.7885 175.7527 0009757 210.1382 149.9158 15.05901004943372
SL-6 R/B(2)             
1 20666U 90055D   26115.65395800  .00001974  00000+0  15607-3 0  9992
2 20666  62.7808  94.1122 0032378 356.8596   3.2295 15.03795541945253
SL-8 R/B                
1 20775U 90078B   26115.72704581  .00021132  00000+0  61885-3 0  9993
2 20775  82.9053 208.9674 0356178 215.0779 142.6521 14.90371272816302
