[{"OBJECT_NAME":"SL-8 R/B","OBJECT_ID":"1988-053B","EPOCH":"2026-04-25T20:44:05.756928","MEAN_MOTION":14.38941943,"ECCENTRICITY":0.00206041,"INCLINATION":74.0497,"RA_OF_ASC_NODE":25.5077,"ARG_OF_PERICENTER":197.2829,"MEAN_ANOMALY":226.89,"EPHEMERIS_TYPE":0,"CLASSIFICATION_TYPE":"U","NORAD_CAT_ID":19257,"ELEMENT_SET_NO":999,"REV_AT_EPOCH":98338,"BSTAR":6.9849394e-5,"MEAN_MOTION_DOT":1.89e-6,"MEAN_MOTION_DDOT":0},{"OBJECT_NAME":"COSMOS 1975","OBJECT_ID":"1988-093A","EPOCH":"2026-04-25T20:43:42.016800","MEAN_MOTION":15.28646575,"ECCENTRICITY":0.00117608,"INCLINATION":82.5186,"RA_OF_ASC_NODE":70.2958,"ARG_OF_PERICENTER":15.0205,"MEAN_ANOMALY":345.1382,"EPHEMERIS_TYPE":0,"CLASSIFICATION_TYPE":"U","NORAD_CAT_ID":19573,"ELEMENT_SET_NO":999,"REV_AT_EPOCH":2661,"BSTAR":0.00025985705,"MEAN_MOTION_DOT":7.284e-5,"MEAN_MOTION_DDOT":0},{"OBJECT_NAME":"SL-14 R/B","OBJECT_ID":"1988-093B","EPOCH":"2026-04-25T17:46:14.363328","MEAN_MOTION":14.85703075,"ECCENTRICITY":0.00192726,"INCLINATION":82.5331,"RA_OF_ASC_NODE":357.8873,"ARG_OF_PERICENTER":240.5197,"MEAN_ANOMALY":180.6467,"EPHEMERIS_TYPE":0,"CLASSIFICATION_TYPE":"U","NORAD_CAT_ID":19574,"ELEMENT_SET_NO":999,"REV_AT_EPOCH":800,"BSTAR":3.2816947e-5,"MEAN_MOTION_DOT":3.1e-6,"MEAN_MOTION_DDOT":0},{"OBJECT_NAME":"SL-16 R/B","OBJECT_ID":"1988-102B","EPOCH":"2026-04-25T22:44:36.600576","MEAN_MOTION":14.16157299,"ECCENTRICITY":0.00162591,"INCLINATION":71.0003,"RA_OF_ASC_NODE":52.0573,"ARG_OF_PERICENTER":294.6858,"MEAN_ANOMALY":65.2572,"EPHEMERIS_TYPE":0,"CLASSIFICATION_TYPE":"U","NORAD_CAT_ID":19650,"ELEMENT_SET_NO":999,"REV_AT_EPOCH":93358,"BSTAR":-1.2818745e-5,"MEAN_MOTION_DOT":-7.3e-7,"MEAN_MOTION_DDOT":0},{"OBJECT_NAME":"INTERCOSMOS 24","OBJECT_ID":"1989-080A","EPOCH":"2026-04-25T19:53:19.851936","MEAN_MOTION":12.59601468,"ECCENTRICITY":0.11875228,"INCLINATION":82.604,"RA_OF_ASC_NODE":73.7038,"ARG_OF_PERICENTER":183.3519,"MEAN_ANOMALY":175.9073,"EPHEMERIS_TYPE":0,"CLASSIFICATION_TYPE":"U","NORAD_CAT_ID":20261,"ELEMENT_SET_NO":999,"REV_AT_EPOCH":67273,"BSTAR":9.818979e-5,"MEAN_MOTION_DOT":3.5e-6,"MEAN_MOTION_DDOT":0},{"OBJECT_NAME":"SL-14 R/B","OBJECT_ID":"1989-080C","EPOCH":"2026-04-25T18:19:40.269792","MEAN_MOTION":12.50528987,"ECCENTRICITY":0.12309912,"INCLINATION":82.5908,"RA_OF_ASC_NODE":142.977,"ARG_OF_PERICENTER":77.2106,"MEAN_ANOMALY":296.342,"EPHEMERIS_TYPE":0,"CLASSIFICATION_TYPE":"U","NORAD_CAT_ID":20262,"ELEMENT_SET_NO":999,"REV_AT_EPOCH":66603,"BSTAR":8.108077e-5,"MEAN_MOTION_DOT":3.01e-6,"MEAN_MOTION_DDOT":0},{"OBJECT_NAME":"DELTA 1 R/B","OBJECT_ID":"1989-089B","EPOCH":"2026-04-25T19:11:10.652640","MEAN_MOTION":14.50696893,"ECCENTRICITY":0.00683294,"INCLINATION":97.0667,"RA_OF_ASC_NODE":315.7315,"ARG_OF_PERICENTER":334.8903,"MEAN_ANOMALY":24.8978,"EPHEMERIS_TYPE":0,"CLASSIFICATION_TYPE":"U","NORAD_CAT_ID":20323,"ELEMENT_SET_NO":999,"REV_AT_EPOCH":90256,"BSTAR":6.0878275e-5,"MEAN_MOTION_DOT":2.1e-6,"MEAN_MOTION_DDOT":0},{"OBJECT_NAME":"ARIANE 40 R/B","OBJECT_ID":"1990-005H","EPOCH":"2026-04-25T22:16:17.460768","MEAN_MOTION":14.39899087,"ECCENTRICITY":0.00112234,"INCLINATION":98.2997,"RA_OF_ASC_NODE":175.1598,"ARG_OF_PERICENTER":66.7308,"MEAN_ANOMALY":293.5061,"EPHEMERIS_TYPE":0,"CLASSIFICATION_TYPE":"U","NORAD_CAT_ID":20443,"ELEMENT_SET_NO":999,"REV_AT_EPOCH":89960,"BSTAR":8.426678e-5,"MEAN_MOTION_DOT":2.23e-6,"MEAN_MOTION_DDOT":0},{"OBJECT_NAME":"DELTA 2 R/B(1)","OBJECT_ID":"1990-008B","EPOCH":"2026-04-25T13:36:52.119360","MEAN_MOTION":15.6191858,"ECCENTRICITY":0.00742575,"INCLINATION":35.6012,"RA_OF_ASC_NODE":225.755,"ARG_OF_PERICENTER":338.5337,"MEAN_ANOMALY":21.2294,"EPHEMERIS_TYPE":0,"CLASSIFICATION_TYPE":"U","NORAD_CAT_ID":20453,"ELEMENT_SET_NO":999,"REV_AT_EPOCH":93345,"BSTAR":0.0005555985,"MEAN_MOTION_DOT":0.00057878,"MEAN_MOTION_DDOT":0},{"OBJECT_NAME":"COSMOS 2058","OBJECT_ID":"1990-010A","EPOCH":"2026-04-25T18:46:37.436736","MEAN_MOTION":15.1169727,"ECCENTRICITY":0.00097608,"INCLINATION":82.4695,"RA_OF_ASC_NODE":1.0295,"ARG_OF_PERICENTER":160.7045,"MEAN_ANOMALY":199.4557,"EPHEMERIS_TYPE":0,"CLASSIFICATION_TYPE":"U","NORAD_CAT_ID":20465,"ELEMENT_SET_NO":999,"REV_AT_EPOCH":94935,"BSTAR":0.00015308578,"MEAN_MOTION_DOT":2.637e-5,"MEAN_MOTION_DDOT":0},{"OBJECT_NAME":"SL-14 R/B","OBJECT_ID":"1990-010B","EPOCH":"2026-04-25T18:20:09.425472","MEAN_MOTION":14.83611833,"ECCENTRICITY":0.00207951,"INCLINATION":82.5042,"RA_OF_ASC_NODE":223.1688,"ARG_OF_PERICENTER":141.5379,"MEAN_ANOMALY":218.7323,"EPHEMERIS_TYPE":0,"CLASSIFICATION_TYPE":"U","NORAD_CAT_ID":20466,"ELEMENT_SET_NO":999,"REV_AT_EPOCH":93546,"BSTAR":4.317011e-5,"MEAN_MOTION_DOT":3.81e-6,"MEAN_MOTION_DDOT":0},{"OBJECT_NAME":"SL-14 R/B","OBJECT_ID":"1990-018B","EPOCH":"2026-04-25T16:36:20.461536","MEAN_MOTION":14.82184367,"ECCENTRICITY":0.00148592,"INCLINATION":82.5231,"RA_OF_ASC_NODE":179.1725,"ARG_OF_PERICENTER":299.702,"MEAN_ANOMALY":60.2715,"EPHEMERIS_TYPE":0,"CLASSIFICATION_TYPE":"U","NORAD_CAT_ID":20511,"ELEMENT_SET_NO":999,"REV_AT_EPOCH":92954,"BSTAR":3.0546692e-5,"MEAN_MOTION_DOT":2.67e-6,"MEAN_MOTION_DDOT":0},{"OBJECT_NAME":"HST","OBJECT_ID":"1990-037B","EPOCH":"2026-04-25T14:02:48.111648","MEAN_MOTION":15.30144545,"ECCENTRICITY":0.00016451,"INCLINATION":28.4745,"RA_OF_ASC_NODE":79.9164,"ARG_OF_PERICENTER":280.6914,"MEAN_ANOMALY":79.3497,"EPHEMERIS_TYPE":0,"CLASSIFICATION_TYPE":"U","NORAD_CAT_ID":20580,"ELEMENT_SET_NO":999,"REV_AT_EPOCH":78050,"BSTAR":0.00020815249,"MEAN_MOTION_DOT":6.48e-5,"MEAN_MOTION_DDOT":0},{"OBJECT_NAME":"SL-16 R/B","OBJECT_ID":"1990-046B","EPOCH":"2026-04-25T15:16:32.098368","MEAN_MOTION":14.15015186,"ECCENTRICITY":0.00160809,"INCLINATION":70.9991,"RA_OF_ASC_NODE":199.314,"ARG_OF_PERICENTER":237.3411,"MEAN_ANOMALY":122.6161,"EPHEMERIS_TYPE":0,"CLASSIFICATION_TYPE":"U","NORAD_CAT_ID":20625,"ELEMENT_SET_NO":999,"REV_AT_EPOCH":85503,"BSTAR":6.1062414e-5,"MEAN_MOTION_DOT":7.1e-7,"MEAN_MOTION_DDOT":0},{"OBJECT_NAME":"COSMOS 2084","OBJECT_ID":"1990-055A","EPOCH":"2026-04-25T12:57:30.070368","MEAN_MOTION":15.05901004,"ECCENTRICITY":0.00097573,"INCLINATION":62.7885,"RA_OF_ASC_NODE":175.7527,"ARG_OF_PERICENTER":210.1382,"MEAN_ANOMALY":149.9158,"EPHEMERIS_TYPE":0,"CLASSIFICATION_TYPE":"U","NORAD_CAT_ID":20663,"ELEMENT_SET_NO":999,"REV_AT_EPOCH":94337,"BSTAR":0.00012328543,"MEAN_MOTION_DOT":1.6e-5,"MEAN_MOTION_DDOT":0},{"OBJECT_NAME":"SL-6 R/B(2)","OBJECT_ID":"1990-055D","EPOCH":"2026-04-25T15:41:41.971200","MEAN_MOTION":15.03795541,"ECCENTRICITY":0.00323781,"INCLINATION":62.7808,"RA_OF_ASC_NODE":94.1122,"ARG_OF_PERICENTER":356.8596,"MEAN_ANOMALY":3.2295,"EPHEMERIS_TYPE":0,"CLASSIFICATION_TYPE":"U","NORAD_CAT_ID":20666,"ELEMENT_SET_NO":999,"REV_AT_EPOCH":94525,"BSTAR":0.00015607122,"MEAN_MOTION_DOT":1.974e-5,"MEAN_MOTION_DDOT":0},{"OBJECT_NAME":"SL-8 R/B","OBJECT_ID":"1990-078B","EPOCH":"2026-04-25T17:26:56.757984","MEAN_MOTION":14.90371272,"ECCENTRICITY":0.0356178,"INCLINATION":82.9053,"RA_OF_ASC_NODE":208.9674,"ARG_OF_PERICENTER":215.0779,"MEAN_ANOMALY":142.6521,"EPHEMERIS_TYPE":0,"CLASSIFICATION_TYPE":"U","NORAD_CAT_ID":20775,"ELEMENT_SET_NO":999,"REV_AT_EPOCH":81630,"BSTAR":0.00061884878,"MEAN_MOTION_DOT":0.00021132,"MEAN_MOTION_DDOT":0}]
